AMC-1 (GE-1)            
1 24315U 96054A   22284.23255005  .00000059  00000+0  00000+0 0  9991
2 24315   5.8902  72.1457 0003393 124.4098 136.0869  1.00276724 95537
AMC-3 (GE-3)            
1 24936U 97050A   22284.50370066 -.00000265  00000+0  00000+0 0  9992
2 24936   4.8252  78.3663 0002965 117.1712 293.8851  1.00271813 91966
ASTRA 1G                
1 25071U 97076A   22284.09492931  .00000110  00000+0  00000+0 0  9999
2 25071   6.5062  67.3796 0003800 132.8658 233.0156  1.00269933 91056
ASTRA 2A                
1 25462U 98050A   22284.57306591  .00000064  00000+0  00000+0 0  9993
2 25462   3.6902  84.2933 0003488 132.3961  66.9660  1.00273266 88251
AMC-4 (GE-4)            
1 25954U 99060A   22284.51269623  .00000082  00000+0  00000+0 0  9999
2 25954   1.8084  90.4575 0003200 124.9734 214.3427  1.00274064 84002
NSS-11 (AAP-1)          
1 26554U 00059A   22283.76744771  .00000016  00000+0  00000+0 0  9991
2 26554   0.0574  73.1732 0002796 117.0455 281.4149  1.00272566 27805
AMC-6 (GE-6)            
1 26580U 00067A   22284.51047730  .00000098  00000+0  00000+0 0  9994
2 26580   0.0544  73.4637 0002820 134.5883 216.8104  1.00273151 80505
ASTRA 2D                
1 26638U 00081A   22283.85604775  .00000123  00000+0  00000+0 0  9997
2 26638   7.5348  59.4993 0001775 147.7648 144.0165  1.00271059 39413
AMC-8 (GE-8)            
1 26639U 00081B   22284.51269703  .00000082  00000+0  00000+0 0  9994
2 26639   2.7339  87.2915 0001965  55.8143 286.5678  1.00272612 79796
ASTRA 2C                
1 26853U 01025A   22284.48442988 -.00000263  00000+0  00000+0 0  9997
2 26853   4.8494  78.1721 0003175 133.8539 269.9591  1.00270642 78096
ASTRA 3A                
1 27400U 02015B   22284.22355172 -.00000209  00000+0  00000+0 0  9996
2 27400   7.6347  58.3867 0001858 156.6985 158.3704  1.00275163 75231
NSS-7                   
1 27414U 02019A   22284.17479865 -.00000162  00000+0  00000+0 0  9993
2 27414   6.1659  70.3321 0002218 146.6141 205.7580  1.00271819 75074
NSS-6                   
1 27603U 02057A   22284.12911185  .00000101  00000+0  00000+0 0  9998
2 27603   1.8985  90.2547 0003650 117.0256  49.3962  1.00271078 72541
AMC-11 (GE-11)          
1 28252U 04017A   22284.21836453  .00000061  00000+0  00000+0 0  9996
2 28252   0.0553  67.7141 0002971 142.3919 117.3147  1.00273712 67211
AMC-15                  
1 28446U 04041A   22284.18454781 -.00000096  00000+0  00000+0 0  9993
2 28446   0.0545  64.4328 0002543 132.7094 144.0017  1.00271631 65860
NSS-10 (AMC-12)         
1 28526U 05003A   22283.86716249 -.00000257  00000+0  00000+0 0  9994
2 28526   3.0685  86.0764 0002973 108.2306  99.8813  1.00270984 39662
ASTRA 1KR               
1 29055U 06012A   22283.81646767  .00000111  00000+0  00000+0 0  9993
2 29055   0.0280 113.9047 0005074  99.7035 118.9254  1.00270671 32231
AMC-18                  
1 29644U 06054B   22283.59632632 -.00000225  00000+0  00000+0 0  9991
2 29644   0.0529  75.2607 0002549 125.7266 309.8802  1.00271510 58054
ASTRA 1L                
1 31306U 07016A   22284.22028479  .00000112  00000+0  00000+0 0  9991
2 31306   0.0154  32.4112 0003918 213.0159 232.8706  1.00269275 56551
ASTRA 4A (SIRIUS 4)     
1 32299U 07057A   22283.76994072  .00000024  00000+0  00000+0 0  9999
2 32299   0.0570  74.3657 0003074 130.3102  96.6828  1.00273294 38171
AMC-21                  
1 33275U 08038B   22284.51882051  .00000029  00000+0  00000+0 0  9996
2 33275   0.0564  70.8105 0002557 136.8057 234.3570  1.00272831 51988
ASTRA 1M                
1 33436U 08057A   22284.40744025  .00000113  00000+0  00000+0 0  9996
2 33436   0.0626  95.3456 0004688  80.3554  10.1437  1.00269622 50995
CIEL-2                  
1 33453U 08063A   22283.70675625  .00000049  00000+0  00000+0 0  9991
2 33453   0.0102 206.3303 0003133 358.6129 299.9394  1.00272221 50641
NSS-9                   
1 33749U 09008A   22283.76884292  .00000063  00000+0  00000+0 0  9993
2 33749   0.0543  66.2478 0002266 134.9975 277.9646  1.00271133 50045
SES-7 (PROTOSTAR 2)     
1 34941U 09027A   22284.54252856 -.00000352  00000+0  00000+0 0  9993
2 34941   0.0968  88.0213 0001733 156.8701  78.8177  1.00272610 49134
NSS-12                  
1 36032U 09058A   22284.57345170  .00000065  00000+0  00000+0 0  9995
2 36032   0.0604  79.2071 0003104 133.7726  70.6229  1.00273947 47425
SES-1                   
1 36516U 10016A   22284.24918471 -.00000122  00000+0  00000+0 0  9997
2 36516   0.0337 287.9565 0002583 275.1423 165.4386  1.00272044 45653
ASTRA 3B                
1 36581U 10021A   22283.81646767  .00000128  00000+0  00000+0 0  9998
2 36581   0.0840  63.9036 0003691 138.7569 134.1674  1.00272108 45389
SES-3                   
1 37748U 11035A   22284.51877101 -.00000108  00000+0  00000+0 0  9995
2 37748   0.0558  62.7920 0002969 141.7236 259.3357  1.00271647 41215
ASTRA 1N                
1 37775U 11041A   22283.81646767  .00000112  00000+0  00000+0 0  9990
2 37775   0.0704  48.3283 0001171 119.8170 164.3814  1.00275248 31030
SES-2                   
1 37809U 11049A   22284.43469003 -.00000203  00000+0  00000+0 0  9993
2 37809   0.0578  77.6838 0002933 123.0362 248.7792  1.00271125 40510
QUETZSAT 1              
1 37826U 11054A   22284.14751112 -.00000249  00000+0  00000+0 0  9991
2 37826   0.0547  71.1798 0002947 132.5380 152.1224  1.00271422 40618
SES-4                   
1 38087U 12007A   22284.17479865 -.00000176  00000+0  00000+0 0  9994
2 38087   0.0181 280.8824 0002458 287.0435 212.7735  1.00270644 39001
SES-5                   
1 38652U 12036A   22284.41299457  .00000027  00000+0  00000+0 0  9992
2 38652   0.0635 290.0819 0002221 269.1546 334.4173  1.00271867 37589
ASTRA 2F                
1 38778U 12051A   22284.21507748  .00000142  00000+0  00000+0 0  9999
2 38778   0.0489 231.0037 0004236 343.0710 271.3476  1.00269492 36805
SES-6                   
1 39172U 13026A   22283.78730126 -.00000270  00000+0  00000+0 0  9993
2 39172   0.0435  43.9364 0002114 159.9476  58.4292  1.00275396 34239
O3B FM5                 
1 39188U 13031A   22283.41426929 -.00000027  00000+0  00000+0 0  9999
2 39188   0.0640  16.6383 0002659 186.7961 156.5573  5.00115324169715
O3B FM4                 
1 39189U 13031B   22283.67016271 -.00000027  00000+0  00000+0 0  9993
2 39189   0.0504 352.0891 0002611 211.0314 156.8717  5.00115847169744
O3B FM2                 
1 39190U 13031C   22283.56168484 -.00000027  00000+0  00000+0 0  9997
2 39190   0.0503 346.4067 0002628 215.9269 157.6589  5.00115090169798
O3B PFM                 
1 39191U 13031D   22283.58799069 -.00000027  00000+0  00000+0 0  9999
2 39191   0.0574  10.9754 0002664 188.8501 160.1681  5.00115710169353
ASTRA 2E                
1 39285U 13056A   22283.81646767  .00000141  00000+0  00000+0 0  9998
2 39285   0.0774 325.5549 0002546 229.7172 146.5432  1.00270902 32941
SES-8                   
1 39460U 13071A   22284.11001498 -.00000277  00000+0  00000+0 0  9991
2 39460   0.0109 213.1912 0001822 304.2547 356.8518  1.00271489 32385
ASTRA 5B                
1 39617U 14011B   22283.85604775  .00000146  00000+0  00000+0 0  9991
2 39617   0.0803 300.8246 0004582 255.4589 162.8451  1.00273359 31178
O3B FM3                 
1 40079U 14038A   22283.64277480 -.00000027  00000+0  00000+0 0  9999
2 40079   0.0536 359.8550 0004826 183.1355 177.0105  5.00115340145737
O3B FM7                 
1 40080U 14038B   22283.98862610 -.00000027  00000+0  00000+0 0  9993
2 40080   0.0556 355.6588 0001961 249.7570 114.5679  5.00115492150861
O3B FM6                 
1 40081U 14038C   22281.81621010 -.00000027  00000+0  00000+0 0  9991
2 40081   0.0527 359.3785 0002724 199.2418 161.3728  5.00115319150423
O3B FM8                 
1 40082U 14038D   22283.26935741 -.00000027  00000+0  00000+0 0  9992
2 40082   0.0506 356.7887 0002645 199.9461 163.2602  5.00115661150615
O3B FM10                
1 40348U 14083A   22283.49532798 -.00000027  00000+0  00000+0 0  9997
2 40348   0.0525   9.2658 0002645 189.7232 161.0051  5.00115155142578
O3B FM11                
1 40349U 14083B   22283.70866303 -.00000027  00000+0  00000+0 0  9994
2 40349   0.0570   7.6952 0002610 207.7415 144.5499  5.00115383142603
O3B FM12                
1 40350U 14083C   22284.33554996 -.00000027  00000+0  00000+0 0  9998
2 40350   0.0562   7.1658 0002791 195.2460 157.5802  5.00115220142786
O3B FM9                 
1 40351U 14083D   22283.76272878 -.00000027  00000+0  00000+0 0  9991
2 40351   0.0582   7.6797 0002621 193.8601 158.4532  5.00116143142764
ASTRA 2G                
1 40364U 14089A   22283.81646767  .00000141  00000+0  00000+0 0  9995
2 40364   0.0137  23.4650 0001401  84.2487 233.7979  1.00273710 28471
SES-9                   
1 41380U 16013A   22284.54252859 -.00000352  00000+0  00000+0 0  9994
2 41380   0.0250 274.4883 0001324 232.2790 176.9698  1.00271661 24271
SES-10                  
1 42432U 17017A   22283.83243914 -.00000281  00000+0  00000+0 0  9992
2 42432   0.0120 211.9868 0002822   2.7626  37.4329  1.00268174 20258
SES-15                  
1 42709U 17026A   22284.19987875  .00000052  00000+0  00000+0 0  9995
2 42709   0.0343 353.9599 0000426 212.8944 115.7331  1.00268706 20697
SES-11 (ECHOSTAR 105)   
1 42967U 17063A   22284.51720084 -.00000096  00000+0  00000+0 0  9994
2 42967   0.0278 273.1223 0002710 294.2562 253.9610  1.00271902 18329
SES-14                  
1 43175U 18012B   22284.44033003 -.00000285  00000+0  00000+0 0  9991
2 43175   0.0254 281.7134 0001093 275.7955 293.5302  1.00271337 17569
O3B FM15                
1 43231U 18024A   22283.82867049 -.00000027  00000+0  00000+0 0  9997
2 43231   0.0494  11.0694 0002964 191.1513 157.7704  5.00116034 83726
O3B FM16                
1 43232U 18024B   22283.28239459 -.00000027  00000+0  00000+0 0  9996
2 43232   0.0463  14.4471 0002945 187.7777 157.7662  5.00115899 83603
O3B FM14                
1 43233U 18024C   22283.72183968 -.00000027  00000+0  00000+0 0  9999
2 43233   0.0449  15.1487 0002803 189.9956 154.8460  5.00115309 83643
O3B FM13                
1 43234U 18024D   22283.57546947 -.00000027  00000+0  00000+0 0  9993
2 43234   0.0583  21.9866 0003756 184.7524 153.2456  5.00115089 83756
SES-12                  
1 43488U 18049A   22284.16542288 -.00000277  00000+0  00000+0 0  9998
2 43488   0.0459  53.0988 0002148 192.9757 288.2331  1.00272296 15928
O3B FM20                
1 44112U 19020A   22283.74854331 -.00000027  00000+0  00000+0 0  9994
2 44112   0.0520   8.7165 0003152 199.4297 151.8407  5.00115435 64268
O3B FM19                
1 44113U 19020B   22283.57546997 -.00000027  00000+0  00000+0 0  9992
2 44113   0.0728  18.9351 0001758 206.9268 134.1276  5.00115126 64121
O3B FM17                
1 44114U 19020C   22283.45606580 -.00000027  00000+0  00000+0 0  9995
2 44114   0.0348 356.3770 0003087 205.7706 157.8429  5.00115556 64203
O3B FM18                
1 44115U 19020D   22283.80235693 -.00000027  00000+0  00000+0 0  9998
2 44115   0.0524   8.8918 0002897 191.0856 160.0153  5.00115748 64331
SES-17                  
1 49332U 21095A   22284.50674565 -.00000279  00000+0  00000+0 0  9991
2 49332   0.0190 167.3304 0001221  35.4082 292.6829  1.00269682  4359
SES-22                  
1 52933U 22071A   22284.51274668  .00000081  00000+0  00000+0 0  9998
2 52933   0.0259 263.4243 0002990 320.0507 206.2117  1.00273726  1087
